[{"OBJECT_NAME":"SITRO-AIS 11 (SHEFFER)","OBJECT_ID":"2023-091AU","EPOCH":"2026-03-09T22:16:15.083040","MEAN_MOTION":15.34976359,"ECCENTRICITY":0.00078786,"INCLINATION":97.5188,"RA_OF_ASC_NODE":137.7379,"ARG_OF_PERICENTER":69.8129,"MEAN_ANOMALY":290.396,"EPHEMERIS_TYPE":0,"CLASSIFICATION_TYPE":"U","NORAD_CAT_ID":57208,"ELEMENT_SET_NO":999,"REV_AT_EPOCH":14954,"BSTAR":0.00072300407,"MEAN_MOTION_DOT":0.00024521,"MEAN_MOTION_DDOT":0},{"OBJECT_NAME":"STARLINK-30056","OBJECT_ID":"2023-119W","EPOCH":"2026-03-09T22:00:01.999584","MEAN_MOTION":15.18690363,"ECCENTRICITY":0.00012443,"INCLINATION":43.0005,"RA_OF_ASC_NODE":79.7341,"ARG_OF_PERICENTER":294.9593,"MEAN_ANOMALY":198.4792,"EPHEMERIS_TYPE":0,"CLASSIFICATION_TYPE":"U","NORAD_CAT_ID":57622,"ELEMENT_SET_NO":999,"REV_AT_EPOCH":573,"BSTAR":0.045658013,"MEAN_MOTION_DOT":0.01040204,"MEAN_MOTION_DDOT":0}]
